SPACEMOBILE-003         
1 61045U 24163A   26193.12443383  .00000008  00000+0  15017-4 0  9996
2 61045  52.9645 194.7701 0003953 176.8899 183.2120 15.20757146101564
SPACEMOBILE-005         
1 61046U 24163B   26194.09371225  .00000320  00000+0  29081-4 0  9992
2 61046  52.9756 190.2542 0008516 188.4778 171.6074 15.20746160101706
SPACEMOBILE-001         
1 61047U 24163C   26192.44911905  .00000309  00000+0  28551-4 0  9993
2 61047  52.9736 197.5273 0007475 183.3179 176.7767 15.20792937101458
SPACEMOBILE-002         
1 61048U 24163D   26194.07601240  .00013464  00000+0  61597-3 0  9995
2 61048  52.9787 190.0866 0006379 191.8159 168.2686 15.20818301101703
SPACEMOBILE-004         
1 61049U 24163E   26193.00710093  .00011603  00000+0  53337-3 0  9991
2 61049  52.9667 194.7854 0006095 215.6608 144.3979 15.20795354101542
SPACEMOBILE-001 DEB     
1 62369U 24163F   26193.90083043  .00006968  00000+0  21068-3 0  9998
2 62369  52.9922 158.3066 0005813 244.0872 115.9530 15.35363310 90452
SPACEMOBILE-002 DEB     
1 62370U 24163G   26193.95514699  .00014579  00000+0  32583-3 0  9992
2 62370  52.9409 142.3218 0004535 277.8645  82.1844 15.43763738102340
SPACEMOBILE-003 DEB     
1 62371U 24163H   26193.27257618  .00011583  00000+0  28126-3 0  9993
2 62371  52.9681 152.4208 0005492 225.9098 134.1454 15.41491863 95759
SPACEMOBILE-004 DEB     
1 62372U 24163J   26193.87346735  .00010935  00000+0  27292-3 0  9992
2 62372  52.9832 149.2056 0002764 253.6938 106.3761 15.40724467 98914
SPACEMOBILE-005 DEB     
1 62373U 24163K   26193.92199044  .00007375  00000+0  22749-3 0  9994
2 62373  52.9729 163.0995 0005767 221.1339 138.9227 15.34631237102073
SPACEMOBILE-006         
1 67232U 25309A   26194.10492244  .00000410  00000+0  34917-4 0  9999
2 67232  52.9935 212.9104 0010285 208.4415 151.6019 15.18650428 30538
SPACEMOBILE-008         
1 69589U 26139A   26193.84053977 -.00000102  00000+0  11217-4 0  9991
2 69589  52.9944 146.0977 0004970  50.9222 309.2211 15.12800321  3864
SPACEMOBILE-009         
1 69590U 26139B   26193.90840601 -.00000102  00000+0  11260-4 0  9996
2 69590  52.9936 145.8037 0005200  46.7752 313.3672 15.12693667  3870
SPACEMOBILE-010         
1 69591U 26139C   26193.97734236 -.00000049  00000+0  14261-4 0  9994
2 69591  52.9943 145.5242 0005131  38.7301 321.4057 15.12525132  3898
